EUTELSAT QUANTUM        
1 49056U 21069B   25280.71723904  .00000128  00000+0  00000+0 0  9991
2 49056   0.0165 289.0658 0002701 296.2743  97.1907  1.00271697 15393
EUTELSAT KONNECT VHTS   
1 53765U 22110A   25279.28104914  .00000019  00000+0  00000+0 0  9994
2 53765   0.0566 100.7885 0002698  77.2258 301.0493  1.00268896  4284
EUTELSAT HOTBIRD 13F    
1 54048U 22134A   25279.84072736  .00000090  00000+0  00000+0 0  9992
2 54048   0.0576 282.7433 0001923  77.2695 331.4128  1.00271611 10834
EUTELSAT HOTBIRD 13G    
1 54225U 22146A   25279.63991818  .00000090  00000+0  00000+0 0  9990
2 54225   0.0495 234.5275 0002113 302.7558  81.6552  1.00271479  4926
EUTELSAT 10B            
1 54259U 22157A   25279.84072736  .00000071  00000+0  00000+0 0  9990
2 54259   0.0582  97.4372 0002198  40.9938 190.0081  1.00269613 10487
EUTELSAT 36D            
1 59346U 24059A   25280.71489903  .00000158  00000+0  00000+0 0  9997
2 59346   0.0194 216.5425 0000105 345.4014 107.8812  1.00270507  5616
